start=new Date('2021-10-16T00:00:00.000Z').valueOf();
sats=[{"REF_FRAME":"TEME","OBJECT_NAME":"STARLINK-2139","TLE_LINE1":"1 48554U 21041B   21288.75918690 -.00001955  00000-0 -11243-3 0  9996","DECAY_DATE":null,"COUNTRY_CODE":"US","SEMIMAJOR_AXIS":"6925.414","OBJECT_TYPE":"PAYLOAD","TIME_SYSTEM":"UTC","ARG_OF_PERICENTER":"59.3379","RA_OF_ASC_NODE":"140.9201","MEAN_MOTION_DDOT":"0.0000000000000","INCLINATION":"53.0575","PERIOD":"95.593","LAUNCH_DATE":"2021-05-15","GP_ID":"187281188","REV_AT_EPOCH":"2315","MEAN_ELEMENT_THEORY":"SGP4","MEAN_MOTION_DOT":"-0.00001955","OBJECT_ID":"2021-041B","MEAN_ANOMALY":"300.7817","ECCENTRICITY":"0.00020970","MEAN_MOTION":"15.06378760","CENTER_NAME":"EARTH","TLE_LINE2":"2 48554  53.0575 140.9201 0002097  59.3379 300.7817 15.06378760 23154","CLASSIFICATION_TYPE":"U","RCS_SIZE":"LARGE","SITE":"AFETR","FILE":"3165217","EPOCH":"2021-10-15T18:13:13.748160","BSTAR":"-0.00011243000000","PERIAPSIS":"545.826","ELEMENT_SET_NO":"999","NORAD_CAT_ID":"48554","EPHEMERIS_TYPE":"0","APOAPSIS":"548.731"},{"MEAN_MOTION_DDOT":"0.0000000000000","INCLINATION":"53.0532","RA_OF_ASC_NODE":"151.3859","ARG_OF_PERICENTER":"76.3771","TIME_SYSTEM":"UTC","OBJECT_TYPE":"PAYLOAD","SEMIMAJOR_AXIS":"6925.387","COUNTRY_CODE":"US","TLE_LINE1":"1 48555U 21041C   21288.65505182 -.00000367  00000-0 -57290-5 0  9994","DECAY_DATE":null,"OBJECT_NAME":"STARLINK-2145","REF_FRAME":"TEME","LAUNCH_DATE":"2021-05-15","PERIOD":"95.593","MEAN_MOTION_DOT":"-0.00000367","MEAN_ELEMENT_THEORY":"SGP4","REV_AT_EPOCH":"2299","GP_ID":"187281638","APOAPSIS":"548.322","EPHEMERIS_TYPE":"0","PERIAPSIS":"546.182","NORAD_CAT_ID":"48555","ELEMENT_SET_NO":"999","BSTAR":"-0.00000572900000","EPOCH":"2021-10-15T15:43:16.477248","FILE":"3165217","SITE":"AFETR","RCS_SIZE":"LARGE","CLASSIFICATION_TYPE":"U","TLE_LINE2":"2 48555  53.0532 151.3859 0001545  76.3771 283.7390 15.06387500 22994","CENTER_NAME":"EARTH","MEAN_MOTION":"15.06387500","ECCENTRICITY":"0.00015450","MEAN_ANOMALY":"283.7390","OBJECT_ID":"2021-041C"},{"GP_ID":"187281864","REV_AT_EPOCH":"2301","MEAN_ELEMENT_THEORY":"SGP4","MEAN_MOTION_DOT":"-0.00006357","OBJECT_ID":"2021-041D","ECCENTRICITY":"0.00021820","MEAN_ANOMALY":"289.4767","CENTER_NAME":"EARTH","MEAN_MOTION":"15.06420211","RCS_SIZE":"LARGE","TLE_LINE2":"2 48556  53.0541 150.8262 0002182  70.6457 289.4767 15.06420211 23015","CLASSIFICATION_TYPE":"U","FILE":"3165217","SITE":"AFETR","EPOCH":"2021-10-15T18:38:24.248256","NORAD_CAT_ID":"48556","PERIAPSIS":"545.641","ELEMENT_SET_NO":"999","BSTAR":"-0.00040796000000","APOAPSIS":"548.663","EPHEMERIS_TYPE":"0","OBJECT_NAME":"STARLINK-2151","TLE_LINE1":"1 48556U 21041D   21288.77666954 -.00006357  00000-0 -40796-3 0  9999","DECAY_DATE":null,"REF_FRAME":"TEME","COUNTRY_CODE":"US","SEMIMAJOR_AXIS":"6925.287","OBJECT_TYPE":"PAYLOAD","ARG_OF_PERICENTER":"70.6457","TIME_SYSTEM":"UTC","RA_OF_ASC_NODE":"150.8262","INCLINATION":"53.0541","MEAN_MOTION_DDOT":"0.0000000000000","PERIOD":"95.591","LAUNCH_DATE":"2021-05-15"},{"RCS_SIZE":"LARGE","TLE_LINE2":"2 48557  53.0582 141.7191 0001312  76.9285 283.1850 15.06371235 23120","CLASSIFICATION_TYPE":"U","CENTER_NAME":"EARTH","MEAN_MOTION":"15.06371235","MEAN_ANOMALY":"283.1850","ECCENTRICITY":"0.00013120","OBJECT_ID":"2021-041E","APOAPSIS":"548.210","EPHEMERIS_TYPE":"0","PERIAPSIS":"546.393","ELEMENT_SET_NO":"999","NORAD_CAT_ID":"48557","BSTAR":"-0.00011460000000","EPOCH":"2021-10-15T13:58:27.681312","FILE":"3165217","SITE":"AFETR","GP_ID":"187281413","MEAN_MOTION_DOT":"-0.00001987","MEAN_ELEMENT_THEORY":"SGP4","REV_AT_EPOCH":"2312","PERIOD":"95.594","LAUNCH_DATE":"2021-05-15","OBJECT_TYPE":"PAYLOAD","SEMIMAJOR_AXIS":"6925.437","COUNTRY_CODE":"US","TLE_LINE1":"1 48557U 21041E   21288.58226483 -.00001987  00000-0 -11460-3 0  9998","DECAY_DATE":null,"OBJECT_NAME":"STARLINK-2155","REF_FRAME":"TEME","MEAN_MOTION_DDOT":"0.0000000000000","INCLINATION":"53.0582","RA_OF_ASC_NODE":"141.7191","ARG_OF_PERICENTER":"76.9285","TIME_SYSTEM":"UTC"},{"ARG_OF_PERICENTER":"74.6387","TIME_SYSTEM":"UTC","RA_OF_ASC_NODE":"141.7331","INCLINATION":"53.0552","MEAN_MOTION_DDOT":"0.0000000000000","OBJECT_NAME":"STARLINK-2166","TLE_LINE1":"1 48558U 21041F   21288.57856017 -.00000437  00000-0 -10441-4 0  9998","DECAY_DATE":null,"REF_FRAME":"TEME","COUNTRY_CODE":"US","SEMIMAJOR_AXIS":"6925.369","OBJECT_TYPE":"PAYLOAD","LAUNCH_DATE":"2021-05-15","PERIOD":"95.593","REV_AT_EPOCH":"2226","MEAN_ELEMENT_THEORY":"SGP4","MEAN_MOTION_DOT":"-0.00000437","GP_ID":"187281526","FILE":"3165217","SITE":"AFETR","EPOCH":"2021-10-15T13:53:07.598688","NORAD_CAT_ID":"48558","PERIAPSIS":"546.096","ELEMENT_SET_NO":"999","BSTAR":"-0.00001044100000","APOAPSIS":"548.373","EPHEMERIS_TYPE":"0","OBJECT_ID":"2021-041F","MEAN_ANOMALY":"285.4783","ECCENTRICITY":"0.00016440","CENTER_NAME":"EARTH","MEAN_MOTION":"15.06393320","RCS_SIZE":"LARGE","TLE_LINE2":"2 48558  53.0552 141.7331 0001644  74.6387 285.4783 15.06393320 22263","CLASSIFICATION_TYPE":"U"},{"MEAN_MOTION_DOT":"-0.00000650","MEAN_ELEMENT_THEORY":"SGP4","REV_AT_EPOCH":"2314","GP_ID":"187281301","APOAPSIS":"548.523","EPHEMERIS_TYPE":"0","NORAD_CAT_ID":"48559","PERIAPSIS":"545.923","ELEMENT_SET_NO":"999","BSTAR":"-0.00002474000000","EPOCH":"2021-10-15T17:55:54.454656","FILE":"3165217","SITE":"AFETR","RCS_SIZE":"LARGE","TLE_LINE2":"2 48559  53.0493 140.9850 0001877  76.2259 283.8939 15.06396831 23142","CLASSIFICATION_TYPE":"U","CENTER_NAME":"EARTH","MEAN_MOTION":"15.06396831","MEAN_ANOMALY":"283.8939","ECCENTRICITY":"0.00018770","OBJECT_ID":"2021-041G","INCLINATION":"53.0493","MEAN_MOTION_DDOT":"0.0000000000000","RA_OF_ASC_NODE":"140.9850","ARG_OF_PERICENTER":"76.2259","TIME_SYSTEM":"UTC","OBJECT_TYPE":"PAYLOAD","SEMIMAJOR_AXIS":"6925.358","COUNTRY_CODE":"US","TLE_LINE1":"1 48559U 21041G   21288.74715804 -.00000650  00000-0 -24740-4 0  9990","DECAY_DATE":null,"OBJECT_NAME":"STARLINK-2167","REF_FRAME":"TEME","LAUNCH_DATE":"2021-05-15","PERIOD":"95.592"},{"REV_AT_EPOCH":"2405","MEAN_ELEMENT_THEORY":"SGP4","MEAN_MOTION_DOT":"-0.00001861","GP_ID":"187281973","SITE":"AFETR","FILE":"3165217","EPOCH":"2021-10-15T17:57:17.365824","BSTAR":"-0.00010609000000","PERIAPSIS":"546.076","NORAD_CAT_ID":"48560","ELEMENT_SET_NO":"999","EPHEMERIS_TYPE":"0","APOAPSIS":"548.417","OBJECT_ID":"2021-041H","ECCENTRICITY":"0.00016900","MEAN_ANOMALY":"276.8372","MEAN_MOTION":"15.06389191","CENTER_NAME":"EARTH","TLE_LINE2":"2 48560  53.0476 140.9811 0001690  83.2810 276.8372 15.06389191 24051","CLASSIFICATION_TYPE":"U","RCS_SIZE":"LARGE","TIME_SYSTEM":"UTC","ARG_OF_PERICENTER":"83.2810","RA_OF_ASC_NODE":"140.9811","MEAN_MOTION_DDOT":"0.0000000000000","INCLINATION":"53.0476","REF_FRAME":"TEME","OBJECT_NAME":"STARLINK-2173","TLE_LINE1":"1 48560U 21041H   21288.74811766 -.00001861  00000-0 -10609-3 0  9999","DECAY_DATE":null,"COUNTRY_CODE":"US","SEMIMAJOR_AXIS":"6925.382","OBJECT_TYPE":"PAYLOAD","LAUNCH_DATE":"2021-05-15","PERIOD":"95.593"},{"SEMIMAJOR_AXIS":"6817.829","OBJECT_TYPE":"PAYLOAD","REF_FRAME":"TEME","TLE_LINE1":"1 48561U 21041J   21289.00002315  .00010139  00000-0  24201-3 0  9991","DECAY_DATE":null,"OBJECT_NAME":"STARLINK-2186","COUNTRY_CODE":"US","MEAN_MOTION_DDOT":"0.0000000000000","INCLINATION":"53.0542","TIME_SYSTEM":"UTC","ARG_OF_PERICENTER":"18.2523","RA_OF_ASC_NODE":"112.8106","PERIOD":"93.375","LAUNCH_DATE":"2021-05-15","GP_ID":"187281751","MEAN_ELEMENT_THEORY":"SGP4","MEAN_MOTION_DOT":"0.00010139","REV_AT_EPOCH":"363","MEAN_MOTION":"15.42174823","CENTER_NAME":"EARTH","TLE_LINE2":"2 48561  53.0542 112.8106 0003036  18.2523 205.8699 15.42174823  3635","CLASSIFICATION_TYPE":"U","RCS_SIZE":"LARGE","OBJECT_ID":"2021-041J","MEAN_ANOMALY":"205.8699","ECCENTRICITY":"0.00030360","BSTAR":"0.00024201000000","ELEMENT_SET_NO":"999","PERIAPSIS":"437.624","NORAD_CAT_ID":"48561","EPHEMERIS_TYPE":"0","APOAPSIS":"441.764","SITE":"AFETR","FILE":"3165217","EPOCH":"2021-10-16T00:00:02.000160"},{"PERIOD":"95.592","LAUNCH_DATE":"2021-05-15","TLE_LINE1":"1 48562U 21041K   21288.75548900 -.00000184  00000-0  65585-5 0  9990","OBJECT_NAME":"STARLINK-2187","DECAY_DATE":null,"REF_FRAME":"TEME","COUNTRY_CODE":"US","SEMIMAJOR_AXIS":"6925.363","OBJECT_TYPE":"PAYLOAD","ARG_OF_PERICENTER":"64.8663","TIME_SYSTEM":"UTC","RA_OF_ASC_NODE":"140.9329","INCLINATION":"53.0570","MEAN_MOTION_DDOT":"0.0000000000000","OBJECT_ID":"2021-041K","ECCENTRICITY":"0.00015340","MEAN_ANOMALY":"295.2485","CENTER_NAME":"EARTH","MEAN_MOTION":"15.06395313","RCS_SIZE":"LARGE","TLE_LINE2":"2 48562  53.0570 140.9329 0001534  64.8663 295.2485 15.06395313 23153","CLASSIFICATION_TYPE":"U","FILE":"3165217","SITE":"AFETR","EPOCH":"2021-10-15T18:07:54.249600","PERIAPSIS":"546.166","ELEMENT_SET_NO":"999","NORAD_CAT_ID":"48562","BSTAR":"0.00000655850000","APOAPSIS":"548.290","EPHEMERIS_TYPE":"0","GP_ID":"187281189","REV_AT_EPOCH":"2315","MEAN_ELEMENT_THEORY":"SGP4","MEAN_MOTION_DOT":"-0.00000184"},{"GP_ID":"187281639","MEAN_MOTION_DOT":"-0.00000775","MEAN_ELEMENT_THEORY":"SGP4","REV_AT_EPOCH":"2315","TLE_LINE2":"2 48563  53.0564 140.8602 0002066  68.6218 291.4992 15.06391521 23157","CLASSIFICATION_TYPE":"U","RCS_SIZE":"LARGE","MEAN_MOTION":"15.06391521","CENTER_NAME":"EARTH","ECCENTRICITY":"0.00020660","MEAN_ANOMALY":"291.4992","OBJECT_ID":"2021-041L","EPHEMERIS_TYPE":"0","APOAPSIS":"548.670","BSTAR":"-0.00003313900000","NORAD_CAT_ID":"48563","PERIAPSIS":"545.809","ELEMENT_SET_NO":"999","EPOCH":"2021-10-15T18:34:26.902272","SITE":"AFETR","FILE":"3165217","OBJECT_TYPE":"PAYLOAD","SEMIMAJOR_AXIS":"6925.375","COUNTRY_CODE":"US","REF_FRAME":"TEME","OBJECT_NAME":"STARLINK-2188","TLE_LINE1":"1 48563U 21041L   21288.77392248 -.00000775  00000-0 -33139-4 0  9991","DECAY_DATE":null,"INCLINATION":"53.0564","MEAN_MOTION_DDOT":"0.0000000000000","RA_OF_ASC_NODE":"140.8602","TIME_SYSTEM":"UTC","ARG_OF_PERICENTER":"68.6218","PERIOD":"95.593","LAUNCH_DATE":"2021-05-15"}];
